{
  "type": "FeatureCollection",
  "features": [
    {
      "type": "Feature",
      "properties": {
        "norad_id": 34765,
        "name": "IRIDIUM 33 DEB",
        "group": "iridium-33-debris",
        "lat": -52.27388082626747,
        "lon": 23.775300269548296,
        "alt_km": 771.4612963294567,
        "timestamp": "2025-12-22T14:45:57.790492+00:00",
        "meta_object_name": "IRIDIUM 33 DEB",
        "meta_object_id": "1997-051LJ",
        "meta_epoch": "2025-12-21T13:03:17.424288",
        "meta_mean_motion": 14.40485449,
        "meta_eccentricity": 0.0016466,
        "meta_inclination": 86.3382,
        "meta_ra_of_asc_node": 28.9833,
        "meta_arg_of_pericenter": 181.3076,
        "meta_mean_anomaly": 334.2319,
        "meta_ephemeris_type": 0,
        "meta_classification_type": "U",
        "meta_norad_cat_id": 34765,
        "meta_element_set_no": 999,
        "meta_rev_at_epoch": 87740,
        "meta_bstar": 0.00029938,
        "meta_mean_motion_dot": 9.73e-06,
        "meta_mean_motion_ddot": 0,
        "tle_line1": "1 34765U 97051LJ  25355.54395167  .00000973  00000+0  29938-3 0  9999",
        "tle_line2": "2 34765  86.3382  28.9833 0016466 181.3076 334.2319 14.40485449877403"
      },
      "geometry": {
        "type": "Point",
        "coordinates": [
          23.775300269548296,
          -52.27388082626747
        ]
      }
    },
    {
      "type": "Feature",
      "properties": {
        "norad_id": 34833,
        "name": "IRIDIUM 33 DEB",
        "group": "iridium-33-debris",
        "lat": 63.08215174990924,
        "lon": -140.3992684216477,
        "alt_km": 701.6111295991068,
        "timestamp": "2025-12-22T14:45:57.790502+00:00",
        "meta_object_name": "IRIDIUM 33 DEB",
        "meta_object_id": "1997-051MH",
        "meta_epoch": "2025-12-21T03:45:30.832704",
        "meta_mean_motion": 14.52421073,
        "meta_eccentricity": 0.00214678,
        "meta_inclination": 86.3927,
        "meta_ra_of_asc_node": 47.3667,
        "meta_arg_of_pericenter": 72.8031,
        "meta_mean_anomaly": 341.7014,
        "meta_ephemeris_type": 0,
        "meta_classification_type": "U",
        "meta_norad_cat_id": 34833,
        "meta_element_set_no": 999,
        "meta_rev_at_epoch": 87837,
        "meta_bstar": 0.00044712979,
        "meta_mean_motion_dot": 1.848e-05,
        "meta_mean_motion_ddot": 0,
        "tle_line1": "1 34833U 97051MH  25355.15660686  .00001848  00000+0  44713-3 0  9993",
        "tle_line2": "2 34833  86.3927  47.3667 0021467  72.8031 341.7014 14.52421073878374"
      },
      "geometry": {
        "type": "Point",
        "coordinates": [
          -140.3992684216477,
          63.08215174990924
        ]
      }
    },
    {
      "type": "Feature",
      "properties": {
        "norad_id": 34870,
        "name": "IRIDIUM 33 DEB",
        "group": "iridium-33-debris",
        "lat": -44.86112300368804,
        "lon": 133.2411816966921,
        "alt_km": 644.1577956539822,
        "timestamp": "2025-12-22T14:45:57.790513+00:00",
        "meta_object_name": "IRIDIUM 33 DEB",
        "meta_object_id": "1997-051MQ",
        "meta_epoch": "2025-12-21T21:48:47.340864",
        "meta_mean_motion": 14.76591295,
        "meta_eccentricity": 0.00176063,
        "meta_inclination": 86.3113,
        "meta_ra_of_asc_node": 309.8837,
        "meta_arg_of_pericenter": 150.0243,
        "meta_mean_anomaly": 282.2367,
        "meta_ephemeris_type": 0,
        "meta_classification_type": "U",
        "meta_norad_cat_id": 34870,
        "meta_element_set_no": 999,
        "meta_rev_at_epoch": 89046,
        "meta_bstar": 0.0014110909,
        "meta_mean_motion_dot": 9.902e-05,
        "meta_mean_motion_ddot": 0,
        "tle_line1": "1 34870U 97051MQ  25355.90888126  .00009902  00000+0  14111-2 0  9995",
        "tle_line2": "2 34870  86.3113 309.8837 0017606 150.0243 282.2367 14.76591295890465"
      },
      "geometry": {
        "type": "Point",
        "coordinates": [
          133.2411816966921,
          -44.86112300368804
        ]
      }
    },
    {
      "type": "Feature",
      "properties": {
        "norad_id": 34896,
        "name": "IRIDIUM 33 DEB",
        "group": "iridium-33-debris",
        "lat": 63.19816327003376,
        "lon": -30.44500069539716,
        "alt_km": 674.3406689941758,
        "timestamp": "2025-12-22T14:45:57.790524+00:00",
        "meta_object_name": "IRIDIUM 33 DEB",
        "meta_object_id": "1997-051MY",
        "meta_epoch": "2025-12-22T04:42:04.437216",
        "meta_mean_motion": 14.66361603,
        "meta_eccentricity": 0.00254644,
        "meta_inclination": 86.3297,
        "meta_ra_of_asc_node": 322.4431,
        "meta_arg_of_pericenter": 180.4876,
        "meta_mean_anomaly": 190.8945,
        "meta_ephemeris_type": 0,
        "meta_classification_type": "U",
        "meta_norad_cat_id": 34896,
        "meta_element_set_no": 999,
        "meta_rev_at_epoch": 87758,
        "meta_bstar": 0.00089124778,
        "meta_mean_motion_dot": 4.968e-05,
        "meta_mean_motion_ddot": 0,
        "tle_line1": "1 34896U 97051MY  25356.19588469  .00004968  00000+0  89125-3 0  9997",
        "tle_line2": "2 34896  86.3297 322.4431 0025464 180.4876 190.8945 14.66361603877588"
      },
      "geometry": {
        "type": "Point",
        "coordinates": [
          -30.44500069539716,
          63.19816327003376
        ]
      }
    },
    {
      "type": "Feature",
      "properties": {
        "norad_id": 34926,
        "name": "IRIDIUM 33 DEB",
        "group": "iridium-33-debris",
        "lat": 83.54243436717697,
        "lon": 146.98368552878028,
        "alt_km": 753.0839374814677,
        "timestamp": "2025-12-22T14:45:57.790539+00:00",
        "meta_object_name": "IRIDIUM 33 DEB",
        "meta_object_id": "1997-051NF",
        "meta_epoch": "2025-12-21T19:20:10.732992",
        "meta_mean_motion": 14.5478701,
        "meta_eccentricity": 0.00744409,
        "meta_inclination": 86.132,
        "meta_ra_of_asc_node": 4.0681,
        "meta_arg_of_pericenter": 261.3659,
        "meta_mean_anomaly": 276.799,
        "meta_ephemeris_type": 0,
        "meta_classification_type": "U",
        "meta_norad_cat_id": 34926,
        "meta_element_set_no": 999,
        "meta_rev_at_epoch": 86588,
        "meta_bstar": 0.0043404181,
        "meta_mean_motion_dot": 0.0001936,
        "meta_mean_motion_ddot": 0,
        "tle_line1": "1 34926U 97051NF  25355.80567978  .00019360  00000+0  43404-2 0  9991",
        "tle_line2": "2 34926  86.1320   4.0681 0074440 261.3659 276.7990 14.54787010865888"
      },
      "geometry": {
        "type": "Point",
        "coordinates": [
          146.98368552878028,
          83.54243436717697
        ]
      }
    },
    {
      "type": "Feature",
      "properties": {
        "norad_id": 34985,
        "name": "IRIDIUM 33 DEB",
        "group": "iridium-33-debris",
        "lat": 47.130779911116846,
        "lon": -131.25535679192038,
        "alt_km": 738.5718832050743,
        "timestamp": "2025-12-22T14:45:57.790550+00:00",
        "meta_object_name": "IRIDIUM 33 DEB",
        "meta_object_id": "1997-051NR",
        "meta_epoch": "2025-12-21T03:18:55.645056",
        "meta_mean_motion": 14.42041434,
        "meta_eccentricity": 0.00216435,
        "meta_inclination": 86.369,
        "meta_ra_of_asc_node": 53.2972,
        "meta_arg_of_pericenter": 191.5239,
        "meta_mean_anomaly": 198.031,
        "meta_ephemeris_type": 0,
        "meta_classification_type": "U",
        "meta_norad_cat_id": 34985,
        "meta_element_set_no": 999,
        "meta_rev_at_epoch": 87296,
        "meta_bstar": 0.00042163262,
        "meta_mean_motion_dot": 1.407e-05,
        "meta_mean_motion_ddot": 0,
        "tle_line1": "1 34985U 97051NR  25355.13814404  .00001407  00000+0  42163-3 0  9996",
        "tle_line2": "2 34985  86.3690  53.2972 0021643 191.5239 198.0310 14.42041434872968"
      },
      "geometry": {
        "type": "Point",
        "coordinates": [
          -131.25535679192038,
          47.130779911116846
        ]
      }
    },
    {
      "type": "Feature",
      "properties": {
        "norad_id": 35051,
        "name": "IRIDIUM 33 DEB",
        "group": "iridium-33-debris",
        "lat": -82.97782950432763,
        "lon": -143.98125896881822,
        "alt_km": 747.7063653369814,
        "timestamp": "2025-12-22T14:45:57.790560+00:00",
        "meta_object_name": "IRIDIUM 33 DEB",
        "meta_object_id": "1997-051NX",
        "meta_epoch": "2025-12-22T06:54:52.657344",
        "meta_mean_motion": 14.47638287,
        "meta_eccentricity": 0.00103324,
        "meta_inclination": 86.324,
        "meta_ra_of_asc_node": 4.7003,
        "meta_arg_of_pericenter": 64.6689,
        "meta_mean_anomaly": 295.5583,
        "meta_ephemeris_type": 0,
        "meta_classification_type": "U",
        "meta_norad_cat_id": 35051,
        "meta_element_set_no": 999,
        "meta_rev_at_epoch": 87134,
        "meta_bstar": 0.00063041761,
        "meta_mean_motion_dot": 2.343e-05,
        "meta_mean_motion_ddot": 0,
        "tle_line1": "1 35051U 97051NX  25356.28810946  .00002343  00000+0  63042-3 0  9994",
        "tle_line2": "2 35051  86.3240   4.7003 0010332  64.6689 295.5583 14.47638287871341"
      },
      "geometry": {
        "type": "Point",
        "coordinates": [
          -143.98125896881822,
          -82.97782950432763
        ]
      }
    }
  ]
}